[{"OBJECT_NAME":"STARLINK-4279","OBJECT_ID":"2022-076AJ","EPOCH":"2026-03-09T10:54:55.732608","MEAN_MOTION":15.08841874,"ECCENTRICITY":0.00013093,"INCLINATION":53.2164,"RA_OF_ASC_NODE":85.4343,"ARG_OF_PERICENTER":88.5552,"MEAN_ANOMALY":271.559,"EPHEMERIS_TYPE":0,"CLASSIFICATION_TYPE":"U","NORAD_CAT_ID":53018,"ELEMENT_SET_NO":999,"REV_AT_EPOCH":20294,"BSTAR":3.4400984e-5,"MEAN_MOTION_DOT":2.6e-6,"MEAN_MOTION_DDOT":0},{"OBJECT_NAME":"DISKSAT A","OBJECT_ID":"2025-305D","EPOCH":"2026-03-09T13:08:58.223040","MEAN_MOTION":15.07741062,"ECCENTRICITY":0.0004082,"INCLINATION":45.0023,"RA_OF_ASC_NODE":251.6019,"ARG_OF_PERICENTER":318.1929,"MEAN_ANOMALY":41.8634,"EPHEMERIS_TYPE":0,"CLASSIFICATION_TYPE":"U","NORAD_CAT_ID":67222,"ELEMENT_SET_NO":999,"REV_AT_EPOCH":1226,"BSTAR":0.00090452,"MEAN_MOTION_DOT":0.00013824,"MEAN_MOTION_DDOT":0}]
